ONEWEB-0414             
1 50491U 21132Y   25167.36997689  .00000087  00000+0  18889-3 0  9997
2 50491  87.9139  48.1310 0001579  80.8137 279.3174 13.18687865173416
ONEWEB-0417             
1 50492U 21132Z   25167.37787085  .00000093  00000+0  20195-3 0  9996
2 50492  87.9149  48.1583 0001820  74.8019 285.3314 13.18688790173399
ONEWEB-0418             
1 50493U 21132AA  25167.38722328  .00000093  00000+0  20349-3 0  9998
2 50493  87.9141  48.1440 0001833  68.5330 291.5997 13.18688060173457
ONEWEB-0419             
1 50494U 21132AB  25167.40475544  .00000024  00000+0  27732-4 0  9995
2 50494  87.9138  48.1447 0002109  73.9967 286.1397 13.18686821173372
ONEWEB-0420             
1 50495U 21132AC  25167.37155672  .00000134  00000+0  30754-3 0  9998
2 50495  87.9139  48.1607 0001949  92.4918 267.6437 13.18686387173360
ONEWEB-0421             
1 50496U 21132AD  25167.36521787  .00000341  00000+0  83224-3 0  9992
2 50496  87.9143  48.1540 0001684  76.4122 283.7197 13.18683698173406
ONEWEB-0424             
1 50497U 21132AE  25167.40000796  .00000034  00000+0  54216-4 0  9999
2 50497  87.9149  48.1390 0002281  76.9366 283.2020 13.18687787173431
ONEWEB-0426             
1 50498U 21132AF  25167.05856275  .00000034  00000+0  54525-4 0  9995
2 50498  87.9134  48.2067 0001312  60.5254 299.6009 13.18688311173338
